$$SOE
2459580.500000000, A.D. 2022-Jan-01 00:00:00.0000, -2.631501619503406E+07, -2.020841244258969E+08, 4.872084818335771E+07,
2459587.500000000, A.D. 2022-Jan-08 00:00:00.0000, -1.096264732428518E+07, -2.000741669268325E+08, 4.747545336985125E+07,
2459594.500000000, A.D. 2022-Jan-15 00:00:00.0000, 4.449920985978398E+06, -1.969521843246982E+08, 4.596621840444771E+07,
2459601.500000000, A.D. 2022-Jan-22 00:00:00.0000, 1.983561112809284E+07, -1.926756832816151E+08, 4.418756701570831E+07,
2459608.500000000, A.D. 2022-Jan-29 00:00:00.0000, 3.509769915970395E+07, -1.872069252078804E+08, 4.213552514027935E+07,
2459615.500000000, A.D. 2022-Feb-05 00:00:00.0000, 5.012945929579348E+07, -1.805146336650841E+08, 3.980813916461611E+07,
2459622.500000000, A.D. 2022-Feb-12 00:00:00.0000, 6.481407830994149E+07, -1.725759917202492E+08, 3.720594813055079E+07,
2459629.500000000, A.D. 2022-Feb-19 00:00:00.0000, 7.902494683293296E+07, -1.633789133990905E+08, 3.433250159906946E+07,
2459636.500000000, A.D. 2022-Feb-26 00:00:00.0000, 9.262644922164991E+07, -1.529245442357160E+08, 3.119490631003835E+07,
2459643.500000000, A.D. 2022-Mar-05 00:00:00.0000, 1.054753811281480E+08, -1.412299022631600E+08, 2.780437413375871E+07,
2459650.500000000, A.D. 2022-Mar-12 00:00:00.0000, 1.174231147444004E+08, -1.283305164658349E+08, 2.417673170459966E+07,
2459657.500000000, A.D. 2022-Mar-19 00:00:00.0000, 1.283185998073950E+08, -1.142828599767099E+08, 2.033283976368456E+07,
2459664.500000000, A.D. 2022-Mar-26 00:00:00.0000, 1.380122277064194E+08, -9.916631859871866E+07, 1.629885998961982E+07,
2459671.500000000, A.D. 2022-Apr-02 00:00:00.0000, 1.463604936531744E+08, -8.308439496087971E+07, 1.210630226557774E+07,
2459678.500000000, A.D. 2022-Apr-09 00:00:00.0000, 1.532312723491407E+08, -6.616484156115653E+07, 7.791789711216897E+06,
2459685.500000000, A.D. 2022-Apr-16 00:00:00.0000, 1.585093901961671E+08, -4.855845838055968E+07, 3.396495706243651E+06,
2459692.500000000, A.D. 2022-Apr-23 00:00:00.0000, 1.621020551618592E+08, -3.043639366876950E+07, -1.034762391621409E+06,
2459699.500000000, A.D. 2022-Apr-30 00:00:00.0000, 1.639436286102610E+08, -1.198594993863493E+07, -5.454747020018465E+06,
2459706.500000000, A.D. 2022-May-07 00:00:00.0000, 1.639992266676798E+08, 6.594907204963285E+06, -9.815270261257201E+06,
2459713.500000000, A.D. 2022-May-14 00:00:00.0000, 1.622667267773826E+08, 2.510395060631523E+07, -1.406879674678046E+07,
2459720.500000000, A.D. 2022-May-21 00:00:00.0000, 1.587769266731534E+08, 4.334146695347246E+07, -1.817004071070100E+07,
2459727.500000000, A.D. 2022-May-28 00:00:00.0000, 1.535918333474190E+08, 6.111680508485872E+07, -2.207741540371475E+07,
2459734.500000000, A.D. 2022-Jun-04 00:00:00.0000, 1.468012941634540E+08, 7.825413587140584E+07, -2.575421402346039E+07,
2459741.500000000, A.D. 2022-Jun-11 00:00:00.0000, 1.385183704742180E+08, 9.459699260014127E+07, -2.916944125265576E+07,
2459748.500000000, A.D. 2022-Jun-18 00:00:00.0000, 1.288739611216198E+08, 1.100113476576871E+08, -3.229826371159516E+07,
2459755.500000000, A.D. 2022-Jun-25 00:00:00.0000, 1.180111979040706E+08, 1.243871803508549E+08, -3.512209507022107E+07,
2459762.500000000, A.D. 2022-Jul-02 00:00:00.0000, 1.060800706226184E+08, 1.376386616499047E+08, -3.762836842667055E+07,
2459769.500000000, A.D. 2022-Jul-09 00:00:00.0000, 9.323262438956676E+07, 1.497031994359712E+08, -3.981007034229526E+07,
2459776.500000000, A.D. 2022-Jul-16 00:00:00.0000, 7.961893829678324E+07, 1.605396456153249E+08, -4.166511746715166E+07,
2459783.500000000, A.D. 2022-Jul-23 00:00:00.0000, 6.538396816791866E+07, 1.701259691120914E+08, -4.319565112796234E+07,
2459790.500000000, A.D. 2022-Jul-30 00:00:00.0000, 5.066523975856149E+07, 1.784566617388343E+08, -4.440731280695863E+07,
2459797.500000000, A.D. 2022-Aug-06 00:00:00.0000, 3.559131558338787E+07, 1.855400940870215E+08, -4.530854743387202E+07,
2459804.500000000, A.D. 2022-Aug-13 00:00:00.0000, 2.028091719291726E+07, 1.913959809392328E+08, -4.590996490789028E+07,
2459811.500000000, A.D. 2022-Aug-20 00:00:00.0000, 4.842571116759760E+06, 1.960530571320423E+08, -4.622377694346230E+07,
2459818.500000000, A.D. 2022-Aug-27 00:00:00.0000, -1.062534761649793E+07, 1.995470186601663E+08, -4.626331609201798E+07,
2459825.500000000, A.D. 2022-Sep-03 00:00:00.0000, -2.603428637454864E+07, 2.019187495573266E+08, -4.604263628299735E+07,
2459832.500000000, A.D. 2022-Sep-10 00:00:00.0000, -4.130499407784677E+07, 2.032128309884977E+08, -4.557618934668662E+07,
2459839.500000000, A.D. 2022-Sep-17 00:00:00.0000, -5.636688345090081E+07, 2.034763137403851E+08, -4.487856930499290E+07,
2459846.500000000, A.D. 2022-Sep-24 00:00:00.0000, -7.115733343528497E+07, 2.027577269508615E+08, -4.396431516300764E+07,
2459853.500000000, A.D. 2022-Oct-01 00:00:00.0000, -8.562097332112837E+07, 2.011062925629489E+08, -4.284776294227185E+07,
2459860.500000000, A.D. 2022-Oct-08 00:00:00.0000, -9.970897743070151E+07, 1.985713153902189E+08, -4.154293828124757E+07,
2459867.500000000, A.D. 2022-Oct-15 00:00:00.0000, -1.133783906767256E+08, 1.952017211867290E+08, -4.006348168743220E+07,
2459874.500000000, A.D. 2022-Oct-22 00:00:00.0000, -1.265914990903513E+08, 1.910457151173021E+08, -3.842259970491572E+07,
2459881.500000000, A.D. 2022-Oct-29 00:00:00.0000, -1.393152492279609E+08, 1.861505353691327E+08, -3.663303678823230E+07,
2459888.500000000, A.D. 2022-Nov-05 00:00:00.0000, -1.515207169396230E+08, 1.805622852865005E+08, -3.470706317723639E+07,
2459895.500000000, A.D. 2022-Nov-12 00:00:00.0000, -1.631826274142432E+08, 1.743258291405954E+08, -3.265647471886982E+07,
2459902.500000000, A.D. 2022-Nov-19 00:00:00.0000, -1.742789254010189E+08, 1.674847372336725E+08, -3.049260160956037E+07,
2459909.500000000, A.D. 2022-Nov-26 00:00:00.0000, -1.847903924796959E+08, 1.600812690289254E+08, -2.822632369649464E+07,
2459916.500000000, A.D. 2022-Dec-03 00:00:00.0000, -1.947003077877614E+08, 1.521563854866895E+08, -2.586809046080211E+07,
2459923.500000000, A.D. 2022-Dec-10 00:00:00.0000, -2.039941484978340E+08, 1.437497835831532E+08, -2.342794421885721E+07,
2459930.500000000, A.D. 2022-Dec-17 00:00:00.0000, -2.126593263473653E+08, 1.348999474032520E+08, -2.091554542217263E+07,
2459937.500000000, A.D. 2022-Dec-24 00:00:00.0000, -2.206849565715133E+08, 1.256442113535187E+08, -1.834019922070790E+07,
2459944.500000000, A.D. 2022-Dec-31 00:00:00.0000, -2.280616555635493E+08, 1.160188321845533E+08, -1.571088267924082E+07,
2459951.500000000, A.D. 2023-Jan-07 00:00:00.0000, -2.347813640932937E+08, 1.060590681494767E+08, -1.303627211498593E+07,
2459958.500000000, A.D. 2023-Jan-14 00:00:00.0000, -2.408371953037181E+08, 9.579926378615454E+07, -1.032477000486521E+07,
2459965.500000000, A.D. 2023-Jan-21 00:00:00.0000, -2.462233056944922E+08, 8.527293565147917E+07, -7.584531436952155E+06,
2459972.500000000, A.D. 2023-Jan-28 00:00:00.0000, -2.509347832648757E+08, 7.451285772188880E+07, -4.823490307748627E+06,
2459979.500000000, A.D. 2023-Feb-04 00:00:00.0000, -2.549675511202989E+08, 6.355114868971363E+07, -2.049384902790256E+06,
2459986.500000000, A.D. 2023-Feb-11 00:00:00.0000, -2.583182867299576E+08, 5.241936039957248E+07, 7.302173321991786E+05,
2459993.500000000, A.D. 2023-Feb-18 00:00:00.0000, -2.609843555553496E+08, 4.114856625718990E+07, 3.507895776976096E+06,
2460000.500000000, A.D. 2023-Feb-25 00:00:00.0000, -2.629637576581313E+08, 2.976944925845518E+07, 6.276353332688125E+06,
2460007.500000000, A.D. 2023-Mar-04 00:00:00.0000, -2.642550862681997E+08, 1.831238957643254E+07, 9.028393797476344E+06,
2460014.500000000, A.D. 2023-Mar-11 00:00:00.0000, -2.648574975706364E+08, 6.807551716542463E+06, 1.175689988786699E+07,
2460021.500000000, A.D. 2023-Mar-18 00:00:00.0000, -2.647706911357230E+08, -4.715028727373156E+06, 1.445481186195337E+07,
2460028.500000000, A.D. 2023-Mar-25 00:00:00.0000, -2.639949004235378E+08, -1.622535863268938E+07, 1.711510668243986E+07,
2460035.500000000, A.D. 2023-Apr-01 00:00:00.0000, -2.625308927269616E+08, -2.769340068288981E+07, 1.973077766797414E+07,
2460042.500000000, A.D. 2023-Apr-08 00:00:00.0000, -2.603799791224919E+08, -3.908898512258247E+07, 2.229481474149389E+07,
2460049.500000000, A.D. 2023-Apr-15 00:00:00.0000, -2.575440369183450E+08, -5.038172094398656E+07, 2.480018535984753E+07,
2460056.500000000, A.D. 2023-Apr-22 00:00:00.0000, -2.540255431677828E+08, -6.154090948944659E+07, 2.723981569416483E+07,
2460063.500000000, A.D. 2023-Apr-29 00:00:00.0000, -2.498276170942905E+08, -7.253545816064365E+07, 2.960657201256149E+07,
2460070.500000000, A.D. 2023-May-06 00:00:00.0000, -2.449540739338320E+08, -8.333379242648247E+07, 3.189324261920698E+07,
2460077.500000000, A.D. 2023-May-13 00:00:00.0000, -2.394094920867705E+08, -9.390376708495131E+07, 3.409252043748250E+07,
2460084.500000000, A.D. 2023-May-20 00:00:00.0000, -2.331992944807722E+08, -1.042125774621012E+08, 3.619698628190038E+07,
2460091.500000000, A.D. 2023-May-27 00:00:00.0000, -2.263298453265660E+08, -1.142266709136336E+08, 3.819909295500689E+07,
2460098.500000000, A.D. 2023-Jun-03 00:00:00.0000, -2.188085638224295E+08, -1.239116591137223E+08, 4.009115038020793E+07,
2460105.500000000, A.D. 2023-Jun-10 00:00:00.0000, -2.106440566365041E+08, -1.332322318801353E+08, 4.186531204321456E+07,
2460112.500000000, A.D. 2023-Jun-17 00:00:00.0000, -2.018462711690780E+08, -1.421520736387829E+08, 4.351356307306398E+07,
2460119.500000000, A.D. 2023-Jun-24 00:00:00.0000, -1.924266716316418E+08, -1.506337839499388E+08, 4.502771037644145E+07,
2460126.500000000, A.D. 2023-Jul-01 00:00:00.0000, -1.823984403723449E+08, -1.586388032969176E+08, 4.639937545461147E+07,
2460133.500000000, A.D. 2023-Jul-08 00:00:00.0000, -1.717767091460504E+08, -1.661273459708275E+08, 4.761999089698895E+07,
2460140.500000000, A.D. 2023-Jul-15 00:00:00.0000, -1.605788249066306E+08, -1.730583462774229E+08, 4.868080141575633E+07,
2460147.500000000, A.D. 2023-Jul-22 00:00:00.0000, -1.488246500906623E+08, -1.793894234382883E+08, 4.957287022197855E+07,
$$EOE